{
  "type": "FeatureCollection",
  "features": [
    {
      "type": "Feature",
      "properties": {
        "norad_id": 34070,
        "name": "COSMOS 2251 DEB",
        "group": "cosmos-2251-debris",
        "lat": 4.641913123532846,
        "lon": 105.33127398569944,
        "alt_km": 650.5564635915234,
        "timestamp": "2025-12-18T23:35:49.456813+00:00",
        "meta_object_name": "COSMOS 2251 DEB",
        "meta_object_id": "1993-036KH",
        "meta_epoch": "2025-12-18T13:53:19.554720",
        "meta_mean_motion": 14.77220288,
        "meta_eccentricity": 0.00183565,
        "meta_inclination": 74.0006,
        "meta_ra_of_asc_node": 104.791,
        "meta_arg_of_pericenter": 221.5741,
        "meta_mean_anomaly": 152.9404,
        "meta_ephemeris_type": 0,
        "meta_classification_type": "U",
        "meta_norad_cat_id": 34070,
        "meta_element_set_no": 999,
        "meta_rev_at_epoch": 88697,
        "meta_bstar": 0.0019519507,
        "meta_mean_motion_dot": 0.00013864,
        "meta_mean_motion_ddot": 0,
        "tle_line1": "1 34070U 93036KH  25352.57869855  .00013864  00000+0  19520-2 0  9995",
        "tle_line2": "2 34070  74.0006 104.7910 0018356 221.5741 152.9404 14.77220288886974"
      },
      "geometry": {
        "type": "Point",
        "coordinates": [
          105.33127398569944,
          4.641913123532846
        ]
      }
    },
    {
      "type": "Feature",
      "properties": {
        "norad_id": 34114,
        "name": "COSMOS 2251 DEB",
        "group": "cosmos-2251-debris",
        "lat": 65.86965835713667,
        "lon": 172.35467084444136,
        "alt_km": 694.1204910994984,
        "timestamp": "2025-12-18T23:35:49.456823+00:00",
        "meta_object_name": "COSMOS 2251 DEB",
        "meta_object_id": "1993-036KK",
        "meta_epoch": "2025-12-18T13:54:35.234208",
        "meta_mean_motion": 14.56453821,
        "meta_eccentricity": 0.00477151,
        "meta_inclination": 74.0589,
        "meta_ra_of_asc_node": 32.7661,
        "meta_arg_of_pericenter": 25.2603,
        "meta_mean_anomaly": 127.0142,
        "meta_ephemeris_type": 0,
        "meta_classification_type": "U",
        "meta_norad_cat_id": 34114,
        "meta_element_set_no": 999,
        "meta_rev_at_epoch": 87886,
        "meta_bstar": 0.001161277,
        "meta_mean_motion_dot": 5.215e-05,
        "meta_mean_motion_ddot": 0,
        "tle_line1": "1 34114U 93036KK  25352.57957447  .00005215  00000+0  11613-2 0  9995",
        "tle_line2": "2 34114  74.0589  32.7661 0047715  25.2603 127.0142 14.56453821878868"
      },
      "geometry": {
        "type": "Point",
        "coordinates": [
          172.35467084444136,
          65.86965835713667
        ]
      }
    },
    {
      "type": "Feature",
      "properties": {
        "norad_id": 34115,
        "name": "COSMOS 2251 DEB",
        "group": "cosmos-2251-debris",
        "lat": 18.605023823260336,
        "lon": -124.82740613119653,
        "alt_km": 613.5299142956528,
        "timestamp": "2025-12-18T23:35:49.456833+00:00",
        "meta_object_name": "COSMOS 2251 DEB",
        "meta_object_id": "1993-036KL",
        "meta_epoch": "2025-12-17T18:18:00.540864",
        "meta_mean_motion": 14.79556772,
        "meta_eccentricity": 0.00287085,
        "meta_inclination": 74.0065,
        "meta_ra_of_asc_node": 232.038,
        "meta_arg_of_pericenter": 54.0554,
        "meta_mean_anomaly": 306.3278,
        "meta_ephemeris_type": 0,
        "meta_classification_type": "U",
        "meta_norad_cat_id": 34115,
        "meta_element_set_no": 999,
        "meta_rev_at_epoch": 89486,
        "meta_bstar": 0.00070168989,
        "meta_mean_motion_dot": 5.259e-05,
        "meta_mean_motion_ddot": 0,
        "tle_line1": "1 34115U 93036KL  25351.76250626  .00005259  00000+0  70169-3 0  9991",
        "tle_line2": "2 34115  74.0065 232.0380 0028708  54.0554 306.3278 14.79556772894861"
      },
      "geometry": {
        "type": "Point",
        "coordinates": [
          -124.82740613119653,
          18.605023823260336
        ]
      }
    },
    {
      "type": "Feature",
      "properties": {
        "norad_id": 34116,
        "name": "COSMOS 2251 DEB",
        "group": "cosmos-2251-debris",
        "lat": 66.86568738695908,
        "lon": -51.05589615327098,
        "alt_km": 715.4354831066839,
        "timestamp": "2025-12-18T23:35:49.456843+00:00",
        "meta_object_name": "COSMOS 2251 DEB",
        "meta_object_id": "1993-036KM",
        "meta_epoch": "2025-12-18T15:10:06.082176",
        "meta_mean_motion": 14.5300893,
        "meta_eccentricity": 0.00119031,
        "meta_inclination": 74.0394,
        "meta_ra_of_asc_node": 171.6618,
        "meta_arg_of_pericenter": 247.7424,
        "meta_mean_anomaly": 182.9753,
        "meta_ephemeris_type": 0,
        "meta_classification_type": "U",
        "meta_norad_cat_id": 34116,
        "meta_element_set_no": 999,
        "meta_rev_at_epoch": 88572,
        "meta_bstar": 0.00057471353,
        "meta_mean_motion_dot": 2.347e-05,
        "meta_mean_motion_ddot": 0,
        "tle_line1": "1 34116U 93036KM  25352.63201484  .00002347  00000+0  57471-3 0  9993",
        "tle_line2": "2 34116  74.0394 171.6618 0011903 247.7424 182.9753 14.53008930885726"
      },
      "geometry": {
        "type": "Point",
        "coordinates": [
          -51.05589615327098,
          66.86568738695908
        ]
      }
    },
    {
      "type": "Feature",
      "properties": {
        "norad_id": 34117,
        "name": "COSMOS 2251 DEB",
        "group": "cosmos-2251-debris",
        "lat": 2.4419938422427867,
        "lon": -27.00779042712615,
        "alt_km": 732.5539790818684,
        "timestamp": "2025-12-18T23:35:49.456854+00:00",
        "meta_object_name": "COSMOS 2251 DEB",
        "meta_object_id": "1993-036KN",
        "meta_epoch": "2025-12-18T15:14:56.140800",
        "meta_mean_motion": 14.40034351,
        "meta_eccentricity": 0.00547671,
        "meta_inclination": 74.04,
        "meta_ra_of_asc_node": 332.9353,
        "meta_arg_of_pericenter": 47.6023,
        "meta_mean_anomaly": 312.9747,
        "meta_ephemeris_type": 0,
        "meta_classification_type": "U",
        "meta_norad_cat_id": 34117,
        "meta_element_set_no": 999,
        "meta_rev_at_epoch": 88208,
        "meta_bstar": 0.00050892702,
        "meta_mean_motion_dot": 1.607e-05,
        "meta_mean_motion_ddot": 0,
        "tle_line1": "1 34117U 93036KN  25352.63537200  .00001607  00000+0  50893-3 0  9991",
        "tle_line2": "2 34117  74.0400 332.9353 0054767  47.6023 312.9747 14.40034351882086"
      },
      "geometry": {
        "type": "Point",
        "coordinates": [
          -27.00779042712615,
          2.4419938422427867
        ]
      }
    },
    {
      "type": "Feature",
      "properties": {
        "norad_id": 34118,
        "name": "COSMOS 2251 DEB",
        "group": "cosmos-2251-debris",
        "lat": -26.921902782341885,
        "lon": 65.07276359406333,
        "alt_km": 623.5234593076602,
        "timestamp": "2025-12-18T23:35:49.456864+00:00",
        "meta_object_name": "COSMOS 2251 DEB",
        "meta_object_id": "1993-036KP",
        "meta_epoch": "2025-12-18T10:36:01.755072",
        "meta_mean_motion": 14.94141634,
        "meta_eccentricity": 0.00600046,
        "meta_inclination": 73.9521,
        "meta_ra_of_asc_node": 237.7634,
        "meta_arg_of_pericenter": 66.5905,
        "meta_mean_anomaly": 109.3929,
        "meta_ephemeris_type": 0,
        "meta_classification_type": "U",
        "meta_norad_cat_id": 34118,
        "meta_element_set_no": 999,
        "meta_rev_at_epoch": 89261,
        "meta_bstar": 0.0013053783,
        "meta_mean_motion_dot": 0.00014465,
        "meta_mean_motion_ddot": 0,
        "tle_line1": "1 34118U 93036KP  25352.44168698  .00014465  00000+0  13054-2 0  9995",
        "tle_line2": "2 34118  73.9521 237.7634 0060004  66.5905 109.3929 14.94141634892615"
      },
      "geometry": {
        "type": "Point",
        "coordinates": [
          65.07276359406333,
          -26.921902782341885
        ]
      }
    },
    {
      "type": "Feature",
      "properties": {
        "norad_id": 34120,
        "name": "COSMOS 2251 DEB",
        "group": "cosmos-2251-debris",
        "lat": -73.83534433322122,
        "lon": 123.3107227804982,
        "alt_km": 968.762566630051,
        "timestamp": "2025-12-18T23:35:49.456875+00:00",
        "meta_object_name": "COSMOS 2251 DEB",
        "meta_object_id": "1993-036KR",
        "meta_epoch": "2025-12-18T15:41:38.250816",
        "meta_mean_motion": 13.98690391,
        "meta_eccentricity": 0.01822133,
        "meta_inclination": 73.9905,
        "meta_ra_of_asc_node": 205.9766,
        "meta_arg_of_pericenter": 32.3469,
        "meta_mean_anomaly": 24.2219,
        "meta_ephemeris_type": 0,
        "meta_classification_type": "U",
        "meta_norad_cat_id": 34120,
        "meta_element_set_no": 999,
        "meta_rev_at_epoch": 86063,
        "meta_bstar": 0.00028024143,
        "meta_mean_motion_dot": 4.41e-06,
        "meta_mean_motion_ddot": 0,
        "tle_line1": "1 34120U 93036KR  25352.65391494  .00000441  00000+0  28024-3 0  9996",
        "tle_line2": "2 34120  73.9905 205.9766 0182213  32.3469  24.2219 13.98690391860636"
      },
      "geometry": {
        "type": "Point",
        "coordinates": [
          123.3107227804982,
          -73.83534433322122
        ]
      }
    }
  ]
}